LEMUR-2-HUBBLE-4        
1 64565U 25135AP  26194.86837676  .00001055  00000+0  10517-3 0  9992
2 64565  97.7718 308.4649 0002566 165.5181 194.6112 14.93683552 57852
LEMUR-2-SEJONG-2        
1 64586U 25135BL  26194.84451666  .00002107  00000+0  18865-3 0  9997
2 64586  97.7706 309.6887 0003877 225.2170 134.8736 14.96905403 57939
LEMUR-2-HUBBLE-5        
1 64840U 25135BT  26194.27498338  .00001025  00000+0  10103-3 0  9999
2 64840  97.7739 308.5451 0004223 243.2055 116.8733 14.94210500 57809
LEMUR-2-KARENDARRELL    
1 64841U 25135BU  26194.86273313  .00004386  00000+0  35249-3 0  9990
2 64841  97.7713 311.0352 0012325 108.8027 251.4535 15.00488219 58010
LEMUR-2-LUCILLE-ROSE    
1 65403U 25135BV  26194.56942644  .00003591  00000+0  28939-3 0  9997
2 65403  97.7706 310.7769 0014681 193.9631 166.1189 15.00477141 52594
LEMUR-2-AFFIE-WAUWIE    
1 66295U 25248C   26194.40832245  .00012783  00000+0  46625-3 0  9995
2 66295  45.3884 332.8093 0008714 240.1921 119.8103 15.28200773 38604
OTTER SDM               
1 66678U 25276N   26194.18829196  .00003482  00000+0  16462-3 0  9999
2 66678  97.4209 267.2358 0004241 263.4653  96.6100 15.20042584 34368
LEMUR-2-STAS-GORBUK     
1 66686U 25276W   26194.73597465  .00003169  00000+0  15184-3 0  9992
2 66686  97.4242 267.8265 0003482 255.8012 104.2836 15.19649762 34447
LEMUR-2-TEODOR          
1 66768U 25276DG  26194.75636056  .00003400  00000+0  15498-3 0  9991
2 66768  97.4148 268.1165 0002275  88.6540 271.4956 15.21327647 34485
LEMUR-2-LAILA           
1 66776U 25276DQ  26194.72637483  .00003164  00000+0  14347-3 0  9991
2 66776  97.4170 268.2249 0002896  96.3598 263.7967 15.21553753 34486
LEMUR-2-CELIJO-SB-PK    
1 66781U 25276DW  26194.71756870  .00002937  00000+0  23899-3 0  9997
2 66781  97.5201 264.6196 0007033  68.0362 292.1608 15.00275969 26602
LEMUR-2-FINNIAN         
1 66782U 25276DX  26194.75486397  .00001614  00000+0  13230-3 0  9995
2 66782  97.5311 264.9238 0008117   7.7708 352.3641 15.00606139 23984
LEMUR-2-STARLIGHT       
1 66783U 25276DY  26194.73424874  .00003717  00000+0  30805-3 0  9999
2 66783  97.5236 264.4653 0014807  51.6430 308.6122 14.99343047 34174
LEMUR-2-TARTIFLETTE     
1 66784U 25276DZ  26194.73263434  .00003419  00000+0  28391-3 0  9999
2 66784  97.5236 264.4718 0013909  59.8123 300.4476 14.99329199 34172
LEMUR-2-VUKASIN         
1 66785U 25276EA  26194.70416802  .00002709  00000+0  21936-3 0  9995
2 66785  97.5236 264.8005 0003326  58.7508 301.4041 15.00538582 34128
LEMUR-2-HOTSPUR-TOM     
1 66786U 25276EB  26194.72694100  .00003036  00000+0  25330-3 0  9993
2 66786  97.5224 264.4408 0013858  51.0077 309.2378 14.99232058 34100
